NORAD_CAT_ID,OBJECT_NAME,OBJECT_TYPE,EPOCH,MEAN_MOTION,ECCENTRICITY,INCLINATION,RA_OF_ASC_NODE,ARG_OF_PERICENTER,MEAN_ANOMALY,BSTAR,MEAN_MOTION_DOT,MEAN_MOTION_DDOT,TLE_LINE0,TLE_LINE1,TLE_LINE2,SEMIMAJOR_AXIS,PERIOD,APOGEE,PERIGEE,DECAYED
55291.0,STARLINK-5327,PAYLOAD,2024-01-14 19:53:13,14.98331688,0.0002541,70.0,203.4049,272.6796,87.4072,6.9502e-05,7.36e-06,0.0,0 STARLINK-5327,1 55291U 23010Y   24014.82863039  .00000736  00000-0  69502-4 0  9990,2 55291  70.0000 203.4049 0002541 272.6796  87.4072 14.98331688 55395,6950.188,96.107,573.819,570.287,0.0
55291.0,STARLINK-5327,PAYLOAD,2024-01-14 21:29:21,14.98332112,0.0002536,70.0,203.2366,272.6285,87.4584,7.2879e-05,7.77e-06,0.0,0 STARLINK-5327,1 55291U 23010Y   24014.89538993  .00000777  00000-0  72879-4 0  9991,2 55291  70.0000 203.2366 0002536 272.6285  87.4584 14.98332112 55719,6950.186,96.107,573.814,570.289,0.0
55291.0,STARLINK-5327,PAYLOAD,2024-01-15 13:30:42,14.98331011,0.0002449,70.0003,201.5537,268.139,91.9488,1.0648e-05,3.4e-07,0.0,0 STARLINK-5327,1 55291U 23010Y   24015.56299128  .00000034  00000-0  10648-4 0  9992,2 55291  70.0003 201.5537 0002449 268.1390  91.9488 14.98331011 55814,6950.19,96.107,573.757,570.353,0.0
55291.0,STARLINK-5327,PAYLOAD,2024-01-15 19:55:14,14.98330821,0.0002468,70.0003,200.8805,267.9995,92.0882,6.5554e-06,-1.5e-07,0.0,0 STARLINK-5327,1 55291U 23010Y   24015.83003120 -.00000015  00000-0  65554-5 0  9994,2 55291  70.0003 200.8805 0002468 267.9995  92.0882 14.98330821 55855,6950.19,96.107,573.771,570.34,0.0
55291.0,STARLINK-5327,PAYLOAD,2024-01-15 21:31:22,14.98330965,0.0002469,70.0003,200.7121,268.0661,92.0215,7.6202e-06,-2e-08,0.0,0 STARLINK-5327,1 55291U 23010Y   24015.89679100 -.00000002  00000-0  76202-5 0  9995,2 55291  70.0003 200.7121 0002469 268.0661  92.0215 14.98330965 55554,6950.19,96.107,573.771,570.339,0.0
55291.0,STARLINK-5327,PAYLOAD,2024-01-16 13:32:43,14.98331466,0.0002415,70.0004,199.0292,265.361,94.7273,-2.9299e-05,-4.42e-06,0.0,0 STARLINK-5327,1 55291U 23010Y   24016.56439083 -.00000442  00000-0 -29299-4 0  9996,2 55291  70.0004 199.0292 0002415 265.3610  94.7273 14.98331466 55964,6950.188,96.107,573.732,570.375,0.0
55291.0,STARLINK-5327,PAYLOAD,2024-01-16 21:33:23,14.98329713,0.0002517,70.0002,198.1872,269.2289,90.8582,-5.1949e-05,-7.13e-06,0.0,0 STARLINK-5327,1 55291U 23010Y   24016.89819244 -.00000713  00000-0 -51949-4 0  9991,2 55291  70.0002 198.1872 0002517 269.2289  90.8582 14.98329713 56013,6950.194,96.107,573.808,570.309,0.0
55291.0,STARLINK-5327,PAYLOAD,2024-01-17 15:10:52,14.9832899,0.0002615,70.0,196.3361,270.9071,89.1788,-1.2808e-05,-2.46e-06,0.0,0 STARLINK-5327,1 55291U 23010Y   24017.63255178 -.00000246  00000-0 -12808-4 0  9996,2 55291  70.0000 196.3361 0002615 270.9071  89.1788 14.98328990 56128,6950.196,96.107,573.878,570.244,0.0
55291.0,STARLINK-5327,PAYLOAD,2024-01-17 21:35:24,14.98329918,0.000261,70.0002,195.6631,271.0652,89.0208,5.5621e-08,-9.2e-07,0.0,0 STARLINK-5327,1 55291U 23010Y   24017.89959095 -.00000092  00000-0  55621-7 0  9994,2 55291  70.0002 195.6631 0002610 271.0652  89.0208 14.98329918 56165,6950.193,96.107,573.872,570.244,0.0
55291.0,STARLINK-5327,PAYLOAD,2024-01-18 13:36:44,14.98332508,0.000269,70.0001,193.9802,272.299,87.7861,4.6303e-05,4.6e-06,0.0,0 STARLINK-5327,1 55291U 23010Y   24018.56718739  .00000460  00000-0  46303-4 0  9999,2 55291  70.0001 193.9802 0002690 272.2990  87.7861 14.98332508 56261,6950.185,96.107,573.92,570.181,0.0
55291.0,STARLINK-5327,PAYLOAD,2024-01-18 21:37:25,14.98334965,0.0002644,70.0003,193.1383,271.3378,88.7478,7.2685e-05,7.75e-06,0.0,0 STARLINK-5327,1 55291U 23010Y   24018.90098436  .00000775  00000-0  72685-4 0  9993,2 55291  70.0003 193.1383 0002644 271.3378  88.7478 14.98334965 56318,6950.178,96.107,573.88,570.205,0.0
55291.0,STARLINK-5327,PAYLOAD,2024-01-19 12:02:37,14.98330133,0.0002501,70.0007,191.6234,267.663,92.4243,7.8866e-06,1e-08,0.0,0 STARLINK-5327,1 55291U 23010Y   24019.50182836  .00000001  00000-0  78866-5 0  9998,2 55291  70.0007 191.6234 0002501 267.6630  92.4243 14.98330133 56091,6950.192,96.107,573.796,570.319,0.0
55291.0,STARLINK-5327,PAYLOAD,2024-01-19 13:38:46,14.98329273,0.0002529,70.0006,191.4552,267.4159,92.671,-4.7983e-06,-1.5e-06,0.0,0 STARLINK-5327,1 55291U 23010Y   24019.56858911 -.00000150  00000-0 -47983-5 0  9991,2 55291  70.0006 191.4552 0002529 267.4159  92.6710 14.98329273 56415,6950.195,96.107,573.818,570.302,0.0
55291.0,STARLINK-5327,PAYLOAD,2024-01-19 21:39:26,14.98330852,0.0002516,70.0008,190.6136,267.917,92.1701,1.1963e-05,5e-07,0.0,0 STARLINK-5327,1 55291U 23010Y   24019.90238755  .00000050  00000-0  11963-4 0  9992,2 55291  70.0008 190.6136 0002516 267.9170  92.1701 14.98330852 56465,6950.19,96.107,573.804,570.307,0.0
55291.0,STARLINK-5327,PAYLOAD,2024-01-20 12:04:38,14.9833115,0.0002418,70.0011,189.0988,267.7706,92.3176,-3.2178e-05,-4.77e-06,0.0,0 STARLINK-5327,1 55291U 23010Y   24020.50322809 -.00000477  00000-0 -32178-4 0  9990,2 55291  70.0011 189.0988 0002418 267.7706  92.3176 14.98331150 56246,6950.189,96.107,573.735,570.374,0.0
55291.0,STARLINK-5327,PAYLOAD,2024-01-20 15:16:55,14.98329961,0.0002464,70.001,188.7625,265.2258,94.862,-4.8717e-05,-6.74e-06,0.0,0 STARLINK-5327,1 55291U 23010Y   24020.63674902 -.00000674  00000-0 -48717-4 0  9993,2 55291  70.0010 188.7625 0002464 265.2258  94.8620 14.98329961 56579,6950.193,96.107,573.771,570.345,0.0
55291.0,STARLINK-5327,PAYLOAD,2024-01-20 21:41:27,14.98330644,0.0002464,70.0011,188.0892,266.709,93.3787,-3.6914e-05,-5.33e-06,0.0,0 STARLINK-5327,1 55291U 23010Y   24020.90378829 -.00000533  00000-0 -36914-4 0  9992,2 55291  70.0011 188.0892 0002464 266.7090  93.3787 14.98330644 56612,6950.191,96.107,573.768,570.343,0.0
55291.0,STARLINK-5327,PAYLOAD,2024-01-21 13:42:47,14.98329219,0.0002526,70.0011,186.4063,264.3645,95.7226,1.6843e-05,1.08e-06,0.0,0 STARLINK-5327,1 55291U 23010Y   24021.57138691  .00000108  00000-0  16843-4 0  9992,2 55291  70.0011 186.4063 0002526 264.3645  95.7226 14.98329219 56400,6950.195,96.107,573.816,570.305,0.0
55291.0,STARLINK-5327,PAYLOAD,2024-01-21 20:07:20,14.98330169,0.0002514,70.0012,185.7332,263.9359,96.1513,2.73e-05,2.33e-06,0.0,0 STARLINK-5327,1 55291U 23010Y   24021.83842601  .00000233  00000-0  27300-4 0  9993,2 55291  70.0012 185.7332 0002514 263.9359  96.1513 14.98330169 56754,6950.192,96.107,573.805,570.31,0.0
55291.0,STARLINK-5327,PAYLOAD,2024-01-22 18:33:12,14.98328787,0.0002571,70.0012,183.3774,263.2977,96.7889,9.4207e-06,1.9e-07,0.0,0 STARLINK-5327,1 55291U 23010Y   24022.77306700  .00000019  00000-0  94207-5 0  9995,2 55291  70.0012 183.3774 0002571 263.2977  96.7889 14.98328787 56586,6950.197,96.107,573.849,570.275,0.0
55291.0,STARLINK-5327,PAYLOAD,2024-01-22 20:09:21,14.98328653,0.0002587,70.0011,183.2089,264.409,95.6774,6.527e-06,-1.5e-07,0.0,0 STARLINK-5327,1 55291U 23010Y   24022.83982717 -.00000015  00000-0  65270-5 0  9995,2 55291  70.0011 183.2089 0002587 264.4090  95.6774 14.98328653 56908,6950.197,96.107,573.86,570.264,0.0
55291.0,STARLINK-5327,PAYLOAD,2024-01-23 20:11:21,14.98335385,0.0002908,70.0003,180.6819,275.8652,84.2176,5.8187e-05,6.01e-06,0.0,0 STARLINK-5327,1 55291U 23010Y   24023.84122030  .00000601  00000-0  58187-4 0  9999,2 55291  70.0003 180.6819 0002908 275.8652  84.2176 14.98335385 57055,6950.176,96.107,574.062,570.02,0.0
55291.0,STARLINK-5327,PAYLOAD,2024-01-24 12:12:42,14.983248,0.0002781,70.0004,178.9984,271.4305,88.6535,-4.731e-05,-6.57e-06,0.0,0 STARLINK-5327,1 55291U 23010Y   24024.50882952 -.00000657  00000-0 -47310-4 0  9998,2 55291  70.0004 178.9984 0002781 271.4305  88.6535 14.98324800 56848,6950.209,96.107,574.007,570.141,0.0
55291.0,STARLINK-5327,PAYLOAD,2024-01-24 13:48:51,14.98324029,0.0002786,70.0005,178.8301,272.5594,87.5246,-6.0516e-05,-8.15e-06,0.0,0 STARLINK-5327,1 55291U 23010Y   24024.57559058 -.00000815  00000-0 -60516-4 0  9992,2 55291  70.0005 178.8301 0002786 272.5594  87.5246 14.98324029 57164,6950.211,96.107,574.013,570.14,0.0
55291.0,STARLINK-5327,PAYLOAD,2024-01-24 20:13:23,14.98327191,0.0002869,70.0007,178.1594,268.7577,91.3253,-3.6392e-05,-5.27e-06,0.0,0 STARLINK-5327,1 55291U 23010Y   24024.84262812 -.00000527  00000-0 -36392-4 0  9996,2 55291  70.0007 178.1594 0002869 268.7577  91.3253 14.98327191 57202,6950.202,96.107,574.061,570.073,0.0
55291.0,STARLINK-5327,PAYLOAD,2024-01-25 12:14:43,14.98323907,0.000296,70.001,176.4766,271.7552,88.3268,4.9479e-05,4.97e-06,0.0,0 STARLINK-5327,1 55291U 23010Y   24025.51022804  .00000497  00000-0  49479-4 0  9990,2 55291  70.0010 176.4766 0002960 271.7552  88.3268 14.98323907 56995,6950.212,96.107,574.134,570.019,0.0
55291.0,STARLINK-5327,PAYLOAD,2024-01-25 13:50:51,14.9832425,0.0002913,70.0011,176.3081,270.9085,89.174,3.5969e-05,3.36e-06,0.0,0 STARLINK-5327,1 55291U 23010Y   24025.57698842  .00000336  00000-0  35969-4 0  9998,2 55291  70.0011 176.3081 0002913 270.9085  89.1740 14.98324250 57318,6950.211,96.107,574.1,570.051,0.0
55291.0,STARLINK-5327,PAYLOAD,2024-01-25 20:15:23,14.98325899,0.0002945,70.001,175.6352,270.9118,89.1704,5.7596e-05,5.94e-06,0.0,0 STARLINK-5327,1 55291U 23010Y   24025.84402750  .00000594  00000-0  57596-4 0  9995,2 55291  70.0010 175.6352 0002945 270.9118  89.1704 14.98325899 57356,6950.206,96.107,574.117,570.024,0.0
55291.0,STARLINK-5327,PAYLOAD,2024-01-26 12:16:43,14.9833634,0.000297,70.0007,173.9506,268.7802,91.3017,0.0001309,1.469e-05,0.0,0 STARLINK-5327,1 55291U 23010Y   24026.51161708  .00001469  00000-0  13090-3 0  9997,2 55291  70.0007 173.9506 0002970 268.7802  91.3017 14.98336340 57149,6950.173,96.107,574.102,569.974,0.0
55291.0,STARLINK-5327,PAYLOAD,2024-01-26 13:52:51,14.98336967,0.0002956,70.0008,173.7822,269.2977,90.7843,0.00013713,1.544e-05,0.0,0 STARLINK-5327,1 55291U 23010Y   24026.57837627  .00001544  00000-0  13713-3 0  9999,2 55291  70.0008 173.7822 0002956 269.2977  90.7843 14.98336967 57462,6950.171,96.107,574.091,569.982,0.0
